{
 "generated_at": "2026-06-11T23:47:41Z",
 "sources": [
  {
   "name": "CelesTrak",
   "url": "https://celestrak.org/NORAD/elements/",
   "license": "frei verfügbar; Attribution. Ursprünglich USSPACECOM/Space-Track."
  },
  {
   "name": "GCAT (J. McDowell, planet4589.org)",
   "url": "https://planet4589.org/space/gcat/",
   "license": "CC-BY 4.0"
  }
 ],
 "satellites": [
  {
   "norad": 63205,
   "name": "QPS-SAR-9 (SUSANOO-I)",
   "intl": "2025-050A",
   "group": "sar",
   "gcat": {
    "class": "B",
    "category": "IMG-R",
    "owner": "QPS",
    "state": "J"
   },
   "omm": {
    "OBJECT_NAME": "QPS-SAR-9 (SUSANOO-I)",
    "OBJECT_ID": "2025-050A",
    "EPOCH": "2026-06-11T14:28:48.015264",
    "MEAN_MOTION": 15.03086705,
    "ECCENTRICITY": 0.0002928,
    "INCLINATION": 42.0177,
    "RA_OF_ASC_NODE": 133.0925,
    "ARG_OF_PERICENTER": 128.2085,
    "MEAN_ANOMALY": 231.9006,
    "EPHEMERIS_TYPE": 0,
    "CLASSIFICATION_TYPE": "U",
    "NORAD_CAT_ID": 63205,
    "ELEMENT_SET_NO": 999,
    "REV_AT_EPOCH": 6812,
    "BSTAR": 0.00035561,
    "MEAN_MOTION_DOT": 0.00004691,
    "MEAN_MOTION_DDOT": 0
   }
  },
  {
   "norad": 32382,
   "name": "RADARSAT-2",
   "intl": "2007-061A",
   "group": "resource",
   "gcat": {
    "class": "C",
    "category": "IMG-R",
    "owner": "CSA",
    "state": "CA"
   },
   "omm": {
    "OBJECT_NAME": "RADARSAT-2",
    "OBJECT_ID": "2007-061A",
    "EPOCH": "2026-06-11T17:16:50.206656",
    "MEAN_MOTION": 14.2998295,
    "ECCENTRICITY": 0.0001319,
    "INCLINATION": 98.5782,
    "RA_OF_ASC_NODE": 169.7306,
    "ARG_OF_PERICENTER": 82.7015,
    "MEAN_ANOMALY": 277.4317,
    "EPHEMERIS_TYPE": 0,
    "CLASSIFICATION_TYPE": "U",
    "NORAD_CAT_ID": 32382,
    "ELEMENT_SET_NO": 999,
    "REV_AT_EPOCH": 96517,
    "BSTAR": -0.000040248,
    "MEAN_MOTION_DOT": -0.00000147,
    "MEAN_MOTION_DDOT": 0
   }
  },
  {
   "norad": 37791,
   "name": "RASAT",
   "intl": "2011-044D",
   "group": "resource",
   "gcat": {
    "class": null,
    "category": null,
    "owner": null,
    "state": null
   },
   "omm": {
    "OBJECT_NAME": "RASAT",
    "OBJECT_ID": "2011-044D",
    "EPOCH": "2026-06-11T17:40:15.571776",
    "MEAN_MOTION": 14.68162845,
    "ECCENTRICITY": 0.0019781,
    "INCLINATION": 98.0569,
    "RA_OF_ASC_NODE": 254.2163,
    "ARG_OF_PERICENTER": 206.5007,
    "MEAN_ANOMALY": 273.5656,
    "EPHEMERIS_TYPE": 0,
    "CLASSIFICATION_TYPE": "U",
    "NORAD_CAT_ID": 37791,
    "ELEMENT_SET_NO": 999,
    "REV_AT_EPOCH": 79238,
    "BSTAR": 0.00014697,
    "MEAN_MOTION_DOT": 0.00000799,
    "MEAN_MOTION_DDOT": 0
   }
  },
  {
   "norad": 44322,
   "name": "RCM-1",
   "intl": "2019-033A",
   "group": "sar",
   "gcat": {
    "class": "C",
    "category": "IMG-R",
    "owner": "CSA",
    "state": "CA"
   },
   "omm": {
    "OBJECT_NAME": "RCM-1",
    "OBJECT_ID": "2019-033A",
    "EPOCH": "2026-06-11T07:15:08.911008",
    "MEAN_MOTION": 14.92588547,
    "ECCENTRICITY": 0.0001494,
    "INCLINATION": 97.7598,
    "RA_OF_ASC_NODE": 169.83,
    "ARG_OF_PERICENTER": 86.7089,
    "MEAN_ANOMALY": 273.4301,
    "EPHEMERIS_TYPE": 0,
    "CLASSIFICATION_TYPE": "U",
    "NORAD_CAT_ID": 44322,
    "ELEMENT_SET_NO": 999,
    "REV_AT_EPOCH": 38120,
    "BSTAR": -0.0000018693,
    "MEAN_MOTION_DOT": -7.5e-7,
    "MEAN_MOTION_DDOT": 0
   }
  },
  {
   "norad": 44324,
   "name": "RCM-2",
   "intl": "2019-033C",
   "group": "sar",
   "gcat": {
    "class": "C",
    "category": "IMG-R",
    "owner": "CSA",
    "state": "CA"
   },
   "omm": {
    "OBJECT_NAME": "RCM-2",
    "OBJECT_ID": "2019-033C",
    "EPOCH": "2026-06-11T05:06:36.705312",
    "MEAN_MOTION": 14.92592136,
    "ECCENTRICITY": 0.00014521,
    "INCLINATION": 97.7612,
    "RA_OF_ASC_NODE": 169.7866,
    "ARG_OF_PERICENTER": 92.03,
    "MEAN_ANOMALY": 268.1086,
    "EPHEMERIS_TYPE": 0,
    "CLASSIFICATION_TYPE": "U",
    "NORAD_CAT_ID": 44324,
    "ELEMENT_SET_NO": 999,
    "REV_AT_EPOCH": 38119,
    "BSTAR": 3.18648e-7,
    "MEAN_MOTION_DOT": -5.2e-7,
    "MEAN_MOTION_DDOT": 0
   }
  },
  {
   "norad": 44323,
   "name": "RCM-3",
   "intl": "2019-033B",
   "group": "sar",
   "gcat": {
    "class": "C",
    "category": "IMG-R",
    "owner": "CSA",
    "state": "CA"
   },
   "omm": {
    "OBJECT_NAME": "RCM-3",
    "OBJECT_ID": "2019-033B",
    "EPOCH": "2026-06-11T17:26:55.314240",
    "MEAN_MOTION": 14.92587625,
    "ECCENTRICITY": 0.0001526,
    "INCLINATION": 97.7598,
    "RA_OF_ASC_NODE": 170.3432,
    "ARG_OF_PERICENTER": 90.8409,
    "MEAN_ANOMALY": 269.2985,
    "EPHEMERIS_TYPE": 0,
    "CLASSIFICATION_TYPE": "U",
    "NORAD_CAT_ID": 44323,
    "ELEMENT_SET_NO": 999,
    "REV_AT_EPOCH": 38128,
    "BSTAR": -0.000015694,
    "MEAN_MOTION_DOT": -0.00000217,
    "MEAN_MOTION_DDOT": 0
   }
  },
  {
   "norad": 37387,
   "name": "RESOURCESAT-2",
   "intl": "2011-015A",
   "group": "resource",
   "gcat": {
    "class": null,
    "category": "IMG",
    "owner": "ISRO",
    "state": "IN"
   },
   "omm": {
    "OBJECT_NAME": "RESOURCESAT-2",
    "OBJECT_ID": "2011-015A",
    "EPOCH": "2026-06-11T16:04:08.675904",
    "MEAN_MOTION": 14.21605247,
    "ECCENTRICITY": 0.0010126,
    "INCLINATION": 98.7644,
    "RA_OF_ASC_NODE": 230.1493,
    "ARG_OF_PERICENTER": 273.2831,
    "MEAN_ANOMALY": 86.7187,
    "EPHEMERIS_TYPE": 0,
    "CLASSIFICATION_TYPE": "U",
    "NORAD_CAT_ID": 37387,
    "ELEMENT_SET_NO": 999,
    "REV_AT_EPOCH": 78539,
    "BSTAR": 0.000042049,
    "MEAN_MOTION_DOT": 4.8e-7,
    "MEAN_MOTION_DDOT": 0
   }
  },
  {
   "norad": 41877,
   "name": "RESOURCESAT-2A",
   "intl": "2016-074A",
   "group": "resource",
   "gcat": {
    "class": "C",
    "category": "IMG",
    "owner": "ISRO",
    "state": "IN"
   },
   "omm": {
    "OBJECT_NAME": "RESOURCESAT-2A",
    "OBJECT_ID": "2016-074A",
    "EPOCH": "2026-06-11T17:19:19.468704",
    "MEAN_MOTION": 14.21614765,
    "ECCENTRICITY": 0.0003367,
    "INCLINATION": 98.7526,
    "RA_OF_ASC_NODE": 236.2707,
    "ARG_OF_PERICENTER": 93.4757,
    "MEAN_ANOMALY": 266.6805,
    "EPHEMERIS_TYPE": 0,
    "CLASSIFICATION_TYPE": "U",
    "NORAD_CAT_ID": 41877,
    "ELEMENT_SET_NO": 999,
    "REV_AT_EPOCH": 49352,
    "BSTAR": 0.000046919,
    "MEAN_MOTION_DOT": 5.9e-7,
    "MEAN_MOTION_DDOT": 0
   }
  },
  {
   "norad": 29228,
   "name": "RESURS-DK 1",
   "intl": "2006-021A",
   "group": "resource",
   "gcat": {
    "class": null,
    "category": null,
    "owner": null,
    "state": null
   },
   "omm": {
    "OBJECT_NAME": "RESURS-DK 1",
    "OBJECT_ID": "2006-021A",
    "EPOCH": "2026-06-11T16:20:35.121120",
    "MEAN_MOTION": 15.13193083,
    "ECCENTRICITY": 0.0006682,
    "INCLINATION": 69.9338,
    "RA_OF_ASC_NODE": 353.8061,
    "ARG_OF_PERICENTER": 296.0141,
    "MEAN_ANOMALY": 64.0336,
    "EPHEMERIS_TYPE": 0,
    "CLASSIFICATION_TYPE": "U",
    "NORAD_CAT_ID": 29228,
    "ELEMENT_SET_NO": 999,
    "REV_AT_EPOCH": 10174,
    "BSTAR": 0.00013218,
    "MEAN_MOTION_DOT": 0.00002244,
    "MEAN_MOTION_DDOT": 0
   }
  },
  {
   "norad": 59371,
   "name": "RESURS-P 4",
   "intl": "2024-061A",
   "group": "resource",
   "gcat": {
    "class": "C",
    "category": "IMG",
    "owner": "TSSKBP?",
    "state": "RU"
   },
   "omm": {
    "OBJECT_NAME": "RESURS-P 4",
    "OBJECT_ID": "2024-061A",
    "EPOCH": "2026-06-11T17:04:49.634112",
    "MEAN_MOTION": 15.32100334,
    "ECCENTRICITY": 0.000174,
    "INCLINATION": 97.2747,
    "RA_OF_ASC_NODE": 110.7058,
    "ARG_OF_PERICENTER": 130.763,
    "MEAN_ANOMALY": 229.3763,
    "EPHEMERIS_TYPE": 0,
    "CLASSIFICATION_TYPE": "U",
    "NORAD_CAT_ID": 59371,
    "ELEMENT_SET_NO": 999,
    "REV_AT_EPOCH": 12292,
    "BSTAR": 0.000094838,
    "MEAN_MOTION_DOT": 0.00002863,
    "MEAN_MOTION_DDOT": 0
   }
  },
  {
   "norad": 44233,
   "name": "RISAT-2B",
   "intl": "2019-028A",
   "group": "sar",
   "gcat": {
    "class": "C",
    "category": "IMG-R",
    "owner": "ISRO",
    "state": "IN"
   },
   "omm": {
    "OBJECT_NAME": "RISAT-2B",
    "OBJECT_ID": "2019-028A",
    "EPOCH": "2026-06-11T15:11:28.156128",
    "MEAN_MOTION": 15.0164995,
    "ECCENTRICITY": 0.0005285,
    "INCLINATION": 36.9978,
    "RA_OF_ASC_NODE": 27.0353,
    "ARG_OF_PERICENTER": 338.3947,
    "MEAN_ANOMALY": 21.6572,
    "EPHEMERIS_TYPE": 0,
    "CLASSIFICATION_TYPE": "U",
    "NORAD_CAT_ID": 44233,
    "ELEMENT_SET_NO": 999,
    "REV_AT_EPOCH": 38699,
    "BSTAR": 0.00025057,
    "MEAN_MOTION_DOT": 0.00003237,
    "MEAN_MOTION_DDOT": 0
   }
  },
  {
   "norad": 44857,
   "name": "RISAT-2BR1",
   "intl": "2019-089F",
   "group": "sar",
   "gcat": {
    "class": "C",
    "category": "IMG-R",
    "owner": "ISRO",
    "state": "IN"
   },
   "omm": {
    "OBJECT_NAME": "RISAT-2BR1",
    "OBJECT_ID": "2019-089F",
    "EPOCH": "2026-06-11T10:26:56.745600",
    "MEAN_MOTION": 15.01626086,
    "ECCENTRICITY": 0.001081,
    "INCLINATION": 36.9586,
    "RA_OF_ASC_NODE": 145.7479,
    "ARG_OF_PERICENTER": 128.6897,
    "MEAN_ANOMALY": 231.4813,
    "EPHEMERIS_TYPE": 0,
    "CLASSIFICATION_TYPE": "U",
    "NORAD_CAT_ID": 44857,
    "ELEMENT_SET_NO": 999,
    "REV_AT_EPOCH": 35633,
    "BSTAR": 0.00015204,
    "MEAN_MOTION_DOT": 0.00001932,
    "MEAN_MOTION_DDOT": 0
   }
  },
  {
   "norad": 46905,
   "name": "RISAT-2BR2",
   "intl": "2020-081A",
   "group": "sar",
   "gcat": {
    "class": "C",
    "category": "IMG-R",
    "owner": "ISRO",
    "state": "IN"
   },
   "omm": {
    "OBJECT_NAME": "RISAT-2BR2",
    "OBJECT_ID": "2020-081A",
    "EPOCH": "2026-06-11T13:31:03.211104",
    "MEAN_MOTION": 15.01597948,
    "ECCENTRICITY": 0.0010119,
    "INCLINATION": 36.8983,
    "RA_OF_ASC_NODE": 257.6766,
    "ARG_OF_PERICENTER": 115.3576,
    "MEAN_ANOMALY": 244.8213,
    "EPHEMERIS_TYPE": 0,
    "CLASSIFICATION_TYPE": "U",
    "NORAD_CAT_ID": 46905,
    "ELEMENT_SET_NO": 999,
    "REV_AT_EPOCH": 30662,
    "BSTAR": 0.00020495,
    "MEAN_MOTION_DOT": 0.00002633,
    "MEAN_MOTION_DDOT": 0
   }
  }
 ]
}
